BEESAT-4                
1 41619U 16040W   21243.42362433  .00004318  00000-0  17085-3 0  9991
2 41619  97.2633 297.4051 0012186  70.6743 289.5812 15.25908369276442
CAS-2T & KS-1Q          
1 41847U 16066G   21243.40317371  .00000158  00000-0  34310-4 0  9990
2 41847  98.5950 302.8159 0365054 356.8407   3.0477 14.38230369252656
NAYIF-1 (EO-88)         
1 42017U 17008BX  21243.45895961  .00004727  00000-0  17247-3 0  9993
2 42017  97.3102 309.7138 0005641 185.2535 174.8646 15.28608958252719
ZHUHAI-1 02 (CAS-4B)    
1 42759U 17034B   21243.44089611  .00001108  00000-0  79640-4 0  9997
2 42759  43.0171 128.7933 0009798 275.0337 255.6538 15.10334230232483
ZHUHAI-1 01 (CAS-4A)    
1 42761U 17034D   21243.42724377  .00001200  00000-0  84959-4 0  9995
2 42761  43.0176 127.8659 0010000 278.5410 250.6735 15.10422853232487
MAX VALIER SAT          
1 42778U 17036P   21243.36489530  .00002546  00000-0  10829-3 0  9995
2 42778  97.2492 289.5050 0009907 271.8418  88.1685 15.23866628232693
RADFXSAT (FOX-1B)       
1 43017U 17073E   21243.46736457  .00002005  00000-0  15739-3 0  9992
2 43017  97.6983 144.4557 0255860  55.7810 306.7361 14.79679756204217
FOX-1D (AO-92)          
1 43137U 18004AC  21243.44322909  .00002859  00000-0  11554-3 0  9999
2 43137  97.4019 316.7038 0007372 314.5739  45.4897 15.25541972202090
DIWATA-2B               
1 43678U 18084H   21243.84676178  .00000374  00000-0  42829-4 0  9991
2 43678  97.9337   9.5537 0010352 154.1778 205.9964 14.91781427154673
ES'HAIL 2               
1 43700U 18090A   21243.49876089  .00000142  00000-0  00000-0 0  9992
2 43700   0.0155 135.2438 0002166  62.7308 347.2679  1.00271511 10124
FOX-1CLIFF (AO-95)      
1 43770U 18099N   21243.46145853  .00000959  00000-0  91803-4 0  9994
2 43770  97.6596 311.9755 0015072 161.5940 198.5829 14.95403033149667
ITASAT 1                
1 43786U 18099AE  21243.76761610  .00000302  00000-0  32172-4 0  9995
2 43786  97.6620 313.0053 0015749 153.8281 206.3739 14.95690336149740
JY1SAT (JO-97)          
1 43803U 18099AX  21243.25043445  .00000591  00000-0  57773-4 0  9992
2 43803  97.6577 312.2434 0015691 155.7897 204.4065 14.95948885149673
UWE-4                   
1 43880U 18111E   21243.45111970  .00000262  00000-0  27833-4 0  9992
2 43880  97.6800 149.8854 0011147 207.4217 152.6417 14.96960272146307
NEXUS (FO-99)           
1 43937U 19003F   21243.21056448  .00003844  00000-0  15055-3 0  9999
2 43937  97.1711 283.3875 0024796 106.3326 254.0643 15.26090146145669
PSAT2 (NO-104)          
1 44354U 19036R   21243.47773794  .00017289  00000-0  22109-3 0  9993
2 44354  28.5286 345.8918 0316111  11.1202 349.6187 15.15992553120366
BRICSAT2 (NO-103)       
1 44355U 19036S   21243.48712477  .00044849 -53613-5  43890-3 0  9992
2 44355  28.5244 287.3641 0244497 106.4386 256.3229 15.34949791120944
JAISAT-1                
1 44419U 19038F   21243.46054473  .00002790  00000-0  15655-3 0  9991
2 44419  97.5946 207.9212 0022471  56.3831 303.9540 15.13989170119143
DUCHIFAT-3              
1 44854U 19089C   21243.43697834  .00000904  00000-0  78427-4 0  9993
2 44854  36.9668  17.1633 0008483  15.0531 345.0482 14.99595614 94365
CAS-6 (TO-108)          
1 44881U 19093C   21243.84407435  .00000127  00000-0  22935-4 0  9999
2 44881  97.9213 321.8409 0016317  51.2498 309.0168 14.81475351 91895
RS-44 & BREEZE-KM R/B   
1 44909U 19096E   21243.52530766  .00000006  00000-0 -12347-4 0  9995
2 44909  82.5179  62.9211 0216414 277.6431  80.0141 12.79710539 78428
ORBITAL FACTORY 2 (OF-2)
1 45113U 19071C   21243.41925406  .00007879  00000-0  22896-3 0  9996
2 45113  51.6428  33.8807 0011578 202.7986 157.2485 15.36358298 88690
HUSKYSAT-1 (HO-107)     
1 45119U 19071J   21243.43035534  .00007501  00000-0  21870-3 0  9991
2 45119  51.6420  33.1976 0011058 199.0770 160.9800 15.36336944 88696
BY70-2                  
1 45857U 20042B   21243.76839356  .00001506  00000-0  21969-3 0  9998
2 45857  97.9807 318.7329 0009938 338.9120  21.1695 14.77231410 62663
SALSAT                  
1 46495U 20068K   21243.53308843 -.00000047  00000-0  11284-5 0  9993
2 46495  97.6953 180.5983 0016489 172.0747 188.0741 15.03523737 50616
BY70-3                  
1 46839U 20079N   21243.73202356  .00005573  00000-0  17055-3 0  9999
2 46839  97.2354 316.1020 0005435 303.4802 173.7647 15.34222532 45746
RADFXSAT-2 (AO-109)     
1 47311U 21002C   21243.52290517  .00002691  00000-0  12667-3 0  9997
2 47311  60.6872  10.1262 0041371  86.5780 274.0038 15.21921198 34290
UVSQ-SAT                
1 47438U 21006AB  21243.43445375  .00001884  00000-0  10929-3 0  9997
2 47438  97.4812 303.2992 0012329 192.0694 168.0243 15.13313424 33394
DIY-1 (ARDUIQUBE)       
1 47963U 21022AH  21243.17219301  .00003726  00000-0  24762-3 0  9994
2 47963  97.5501 144.1728 0021279  52.4356 307.8801 15.07611557 23157
